[{"OBJECT_NAME":"STARLINK-32567","OBJECT_ID":"2024-207U","EPOCH":"2026-03-09T23:14:47.109120","MEAN_MOTION":15.27586264,"ECCENTRICITY":6.466e-5,"INCLINATION":42.9999,"RA_OF_ASC_NODE":276.7809,"ARG_OF_PERICENTER":254.6199,"MEAN_ANOMALY":105.4581,"EPHEMERIS_TYPE":0,"CLASSIFICATION_TYPE":"U","NORAD_CAT_ID":61930,"ELEMENT_SET_NO":999,"REV_AT_EPOCH":7539,"BSTAR":0.00089892393,"MEAN_MOTION_DOT":0.00024561,"MEAN_MOTION_DDOT":0},{"OBJECT_NAME":"FLOCK 4G-27","OBJECT_ID":"2025-009AJ","EPOCH":"2026-03-09T18:05:51.175392","MEAN_MOTION":15.27199247,"ECCENTRICITY":7.564e-5,"INCLINATION":97.3976,"RA_OF_ASC_NODE":150.8631,"ARG_OF_PERICENTER":322.4974,"MEAN_ANOMALY":37.6212,"EPHEMERIS_TYPE":0,"CLASSIFICATION_TYPE":"U","NORAD_CAT_ID":62641,"ELEMENT_SET_NO":999,"REV_AT_EPOCH":6371,"BSTAR":0.00047455305,"MEAN_MOTION_DOT":0.00012587,"MEAN_MOTION_DDOT":0}]
